{
  "type": "FeatureCollection",
  "features": [
    {
      "type": "Feature",
      "properties": {
        "norad_id": 66883,
        "name": "STARLINK-35947",
        "group": "last-30-days",
        "lat": 52.985985673470026,
        "lon": 129.11618458401787,
        "alt_km": 339.09875096467476,
        "timestamp": "2025-12-20T20:38:43.173914+00:00",
        "meta_object_name": "STARLINK-35947",
        "meta_object_id": "2025-283F",
        "meta_epoch": "2025-12-20T14:00:03.000384",
        "meta_mean_motion": 15.74152391,
        "meta_eccentricity": 0.00011616,
        "meta_inclination": 53.1581,
        "meta_ra_of_asc_node": 34.4735,
        "meta_arg_of_pericenter": 72.1228,
        "meta_mean_anomaly": 251.6428,
        "meta_ephemeris_type": 0,
        "meta_classification_type": "U",
        "meta_norad_cat_id": 66883,
        "meta_element_set_no": 999,
        "meta_rev_at_epoch": 373,
        "meta_bstar": 0.00033891978,
        "meta_mean_motion_dot": 0.00049218,
        "meta_mean_motion_ddot": 0,
        "tle_line1": "1 66883U 25283F   25354.58336806  .00049218  00000+0  33892-3 0  9990",
        "tle_line2": "2 66883  53.1581  34.4735 0001161  72.1228 251.6428 15.74152391  3732"
      },
      "geometry": {
        "type": "Point",
        "coordinates": [
          129.11618458401787,
          52.985985673470026
        ]
      }
    },
    {
      "type": "Feature",
      "properties": {
        "norad_id": 66884,
        "name": "STARLINK-36057",
        "group": "last-30-days",
        "lat": 52.49441651123589,
        "lon": 135.4165971579846,
        "alt_km": 339.3008939858919,
        "timestamp": "2025-12-20T20:38:43.173923+00:00",
        "meta_object_name": "STARLINK-36057",
        "meta_object_id": "2025-283G",
        "meta_epoch": "2025-12-20T14:00:03.000384",
        "meta_mean_motion": 15.74175334,
        "meta_eccentricity": 0.00010304,
        "meta_inclination": 53.1579,
        "meta_ra_of_asc_node": 34.4646,
        "meta_arg_of_pericenter": 65.6519,
        "meta_mean_anomaly": 261.9451,
        "meta_ephemeris_type": 0,
        "meta_classification_type": "U",
        "meta_norad_cat_id": 66884,
        "meta_element_set_no": 999,
        "meta_rev_at_epoch": 368,
        "meta_bstar": 4.4532946e-05,
        "meta_mean_motion_dot": 5.894e-05,
        "meta_mean_motion_ddot": 0,
        "tle_line1": "1 66884U 25283G   25354.58336806  .00005894  00000+0  44533-4 0  9998",
        "tle_line2": "2 66884  53.1579  34.4646 0001030  65.6519 261.9451 15.74175334  3682"
      },
      "geometry": {
        "type": "Point",
        "coordinates": [
          135.4165971579846,
          52.49441651123589
        ]
      }
    },
    {
      "type": "Feature",
      "properties": {
        "norad_id": 66885,
        "name": "STARLINK-35954",
        "group": "last-30-days",
        "lat": 52.782545277357784,
        "lon": 132.27504048029226,
        "alt_km": 339.3452609954775,
        "timestamp": "2025-12-20T20:38:43.173934+00:00",
        "meta_object_name": "STARLINK-35954",
        "meta_object_id": "2025-283H",
        "meta_epoch": "2025-12-20T14:00:03.000384",
        "meta_mean_motion": 15.74159915,
        "meta_eccentricity": 7.904e-05,
        "meta_inclination": 53.1578,
        "meta_ra_of_asc_node": 34.4687,
        "meta_arg_of_pericenter": 77.4348,
        "meta_mean_anomaly": 248.2449,
        "meta_ephemeris_type": 0,
        "meta_classification_type": "U",
        "meta_norad_cat_id": 66885,
        "meta_element_set_no": 999,
        "meta_rev_at_epoch": 368,
        "meta_bstar": 0.00026226657,
        "meta_mean_motion_dot": 0.00037905,
        "meta_mean_motion_ddot": 0,
        "tle_line1": "1 66885U 25283H   25354.58336806  .00037905  00000+0  26227-3 0  9996",
        "tle_line2": "2 66885  53.1578  34.4687 0000790  77.4348 248.2449 15.74159915  3682"
      },
      "geometry": {
        "type": "Point",
        "coordinates": [
          132.27504048029226,
          52.782545277357784
        ]
      }
    },
    {
      "type": "Feature",
      "properties": {
        "norad_id": 66886,
        "name": "STARLINK-35900",
        "group": "last-30-days",
        "lat": 52.12641891098187,
        "lon": 138.49046739078716,
        "alt_km": 339.3487867315107,
        "timestamp": "2025-12-20T20:38:43.173943+00:00",
        "meta_object_name": "STARLINK-35900",
        "meta_object_id": "2025-283J",
        "meta_epoch": "2025-12-20T14:00:03.000384",
        "meta_mean_motion": 15.74161239,
        "meta_eccentricity": 9.212e-05,
        "meta_inclination": 53.1575,
        "meta_ra_of_asc_node": 34.461,
        "meta_arg_of_pericenter": 84.8617,
        "meta_mean_anomaly": 244.6605,
        "meta_ephemeris_type": 0,
        "meta_classification_type": "U",
        "meta_norad_cat_id": 66886,
        "meta_element_set_no": 999,
        "meta_rev_at_epoch": 368,
        "meta_bstar": 0.00020089734,
        "meta_mean_motion_dot": 0.00028858,
        "meta_mean_motion_ddot": 0,
        "tle_line1": "1 66886U 25283J   25354.58336806  .00028858  00000+0  20090-3 0  9996",
        "tle_line2": "2 66886  53.1575  34.4610 0000921  84.8617 244.6605 15.74161239  3689"
      },
      "geometry": {
        "type": "Point",
        "coordinates": [
          138.49046739078716,
          52.12641891098187
        ]
      }
    },
    {
      "type": "Feature",
      "properties": {
        "norad_id": 66887,
        "name": "STARLINK-35925",
        "group": "last-30-days",
        "lat": 51.67839896210754,
        "lon": 141.52007441512254,
        "alt_km": 339.68896086544464,
        "timestamp": "2025-12-20T20:38:43.173954+00:00",
        "meta_object_name": "STARLINK-35925",
        "meta_object_id": "2025-283K",
        "meta_epoch": "2025-12-20T14:00:03.000384",
        "meta_mean_motion": 15.74195749,
        "meta_eccentricity": 6.632e-05,
        "meta_inclination": 53.1577,
        "meta_ra_of_asc_node": 34.457,
        "meta_arg_of_pericenter": 51.895,
        "meta_mean_anomaly": 279.524,
        "meta_ephemeris_type": 0,
        "meta_classification_type": "U",
        "meta_norad_cat_id": 66887,
        "meta_element_set_no": 999,
        "meta_rev_at_epoch": 368,
        "meta_bstar": -0.00012217808,
        "meta_mean_motion_dot": -0.00018487,
        "meta_mean_motion_ddot": 0,
        "tle_line1": "1 66887U 25283K   25354.58336806 -.00018487  00000+0 -12218-3 0  9999",
        "tle_line2": "2 66887  53.1577  34.4570 0000663  51.8950 279.5240 15.74195749  3689"
      },
      "geometry": {
        "type": "Point",
        "coordinates": [
          141.52007441512254,
          51.67839896210754
        ]
      }
    },
    {
      "type": "Feature",
      "properties": {
        "norad_id": 66888,
        "name": "STARLINK-35919",
        "group": "last-30-days",
        "lat": 51.15500333516225,
        "lon": 144.47621853635164,
        "alt_km": 339.4814193317825,
        "timestamp": "2025-12-20T20:38:43.173964+00:00",
        "meta_object_name": "STARLINK-35919",
        "meta_object_id": "2025-283L",
        "meta_epoch": "2025-12-20T14:00:03.000384",
        "meta_mean_motion": 15.74178097,
        "meta_eccentricity": 0.00010102,
        "meta_inclination": 53.1574,
        "meta_ra_of_asc_node": 34.4526,
        "meta_arg_of_pericenter": 73.2337,
        "meta_mean_anomaly": 260.1131,
        "meta_ephemeris_type": 0,
        "meta_classification_type": "U",
        "meta_norad_cat_id": 66888,
        "meta_element_set_no": 999,
        "meta_rev_at_epoch": 368,
        "meta_bstar": 1.9993702e-05,
        "meta_mean_motion_dot": 2.299e-05,
        "meta_mean_motion_ddot": 0,
        "tle_line1": "1 66888U 25283L   25354.58336806  .00002299  00000+0  19994-4 0  9991",
        "tle_line2": "2 66888  53.1574  34.4526 0001010  73.2337 260.1131 15.74178097  3684"
      },
      "geometry": {
        "type": "Point",
        "coordinates": [
          144.47621853635164,
          51.15500333516225
        ]
      }
    },
    {
      "type": "Feature",
      "properties": {
        "norad_id": 66889,
        "name": "STARLINK-35852",
        "group": "last-30-days",
        "lat": 50.55936975020319,
        "lon": 147.36012659734652,
        "alt_km": 339.6968700487796,
        "timestamp": "2025-12-20T20:38:43.173978+00:00",
        "meta_object_name": "STARLINK-35852",
        "meta_object_id": "2025-283M",
        "meta_epoch": "2025-12-20T14:00:03.000384",
        "meta_mean_motion": 15.7416396,
        "meta_eccentricity": 8.666e-05,
        "meta_inclination": 53.1575,
        "meta_ra_of_asc_node": 34.4484,
        "meta_arg_of_pericenter": 65.5515,
        "meta_mean_anomaly": 269.7151,
        "meta_ephemeris_type": 0,
        "meta_classification_type": "U",
        "meta_norad_cat_id": 66889,
        "meta_element_set_no": 999,
        "meta_rev_at_epoch": 368,
        "meta_bstar": 0.00023100094,
        "meta_mean_motion_dot": 0.00033298,
        "meta_mean_motion_ddot": 0,
        "tle_line1": "1 66889U 25283M   25354.58336806  .00033298  00000+0  23100-3 0  9998",
        "tle_line2": "2 66889  53.1575  34.4484 0000866  65.5515 269.7151 15.74163960  3689"
      },
      "geometry": {
        "type": "Point",
        "coordinates": [
          147.36012659734652,
          50.55936975020319
        ]
      }
    }
  ]
}